{
  "type": "FeatureCollection",
  "generator": "overpass-ide",
  "copyright": "The data included in this document is from www.openstreetmap.org. The data is made available under ODbL.",
  "timestamp": "2022-04-26T00:29:54Z",
  "features": [
    {
      "type": "Feature",
      "properties": {
        "@id": "node/285949956",
        "amenity": "fuel",
        "name": "Repsol",
        "opening_hours": "Mo-Su 07:00-23:00"
      },
      "geometry": {
        "type": "Point",
        "coordinates": [
          -8.6345464,
          41.1479565
        ]
      },
      "id": "node/285949956"
    },
    {
      "type": "Feature",
      "properties": {
        "@id": "node/406362828",
        "addr:city": "Porto",
        "addr:street": "Rua de Faria Guimarães",
        "amenity": "fuel",
        "brand": "Cepsa",
        "brand:wikidata": "Q608819",
        "brand:wikipedia": "en:Cepsa",
        "name": "Cepsa",
        "official_name": "Compañía Española de Petróleos, S.A.U.",
        "operator": "Total"
      },
      "geometry": {
        "type": "Point",
        "coordinates": [
          -8.6065633,
          41.1690632
        ]
      },
      "id": "node/406362828"
    },
    {
      "type": "Feature",
      "properties": {
        "@id": "node/2053577294",
        "amenity": "fuel",
        "brand": "Galp",
        "brand:wikidata": "Q1492739",
        "brand:wikipedia": "en:Galp Energia",
        "name": "Galp",
        "operator": "Galp"
      },
      "geometry": {
        "type": "Point",
        "coordinates": [
          -8.5961794,
          41.1533474
        ]
      },
      "id": "node/2053577294"
    },
    {
      "type": "Feature",
      "properties": {
        "@id": "node/2892505356",
        "amenity": "fuel",
        "brand": "Galp",
        "fuel:1_25": "no",
        "fuel:1_50": "no",
        "fuel:GTL_diesel": "no",
        "fuel:HGV_diesel": "no",
        "fuel:biodiesel": "no",
        "fuel:biogas": "no",
        "fuel:cng": "no",
        "fuel:diesel": "yes",
        "fuel:e10": "no",
        "fuel:e85": "no",
        "fuel:electricity": "no",
        "fuel:lpg": "no",
        "fuel:octane_100": "no",
        "fuel:octane_91": "no",
        "fuel:octane_95": "yes",
        "fuel:octane_98": "yes"
      },
      "geometry": {
        "type": "Point",
        "coordinates": [
          -8.6146987,
          41.1515987
        ]
      },
      "id": "node/2892505356"
    },
    {
      "type": "Feature",
      "properties": {
        "@id": "node/5003532864",
        "amenity": "fuel",
        "brand": "BP",
        "brand:wikidata": "Q152057",
        "brand:wikipedia": "en:BP",
        "name": "BP",
        "opening_hours": "PH,Mo-Su 08:00"
      },
      "geometry": {
        "type": "Point",
        "coordinates": [
          -8.6166695,
          41.1734751
        ]
      },
      "id": "node/5003532864"
    },
    {
      "type": "Feature",
      "properties": {
        "@id": "node/5969259509",
        "amenity": "fuel",
        "brand": "BP",
        "brand:wikidata": "Q152057",
        "brand:wikipedia": "en:BP",
        "name": "BP",
        "operator": "Bp"
      },
      "geometry": {
        "type": "Point",
        "coordinates": [
          -8.6507124,
          41.1616564
        ]
      },
      "id": "node/5969259509"
    },
    {
      "type": "Feature",
      "properties": {
        "@id": "node/7169095404",
        "addr:city": "Porto",
        "addr:street": "Rua da Constituição",
        "amenity": "fuel",
        "brand": "Q8",
        "brand:wikidata": "Q1634762",
        "brand:wikipedia": "en:Kuwait Petroleum Corporation",
        "name": "Q8"
      },
      "geometry": {
        "type": "Point",
        "coordinates": [
          -8.625655,
          41.1645904
        ]
      },
      "id": "node/7169095404"
    },
    {
      "type": "Feature",
      "properties": {
        "@id": "node/9581709485",
        "amenity": "fuel"
      },
      "geometry": {
        "type": "Point",
        "coordinates": [
          -8.619654,
          41.1673473
        ]
      },
      "id": "node/9581709485"
    }
  ]
}