{
  "type": "FeatureCollection",
  "generator": "overpass-ide",
  "copyright": "The data included in this document is from www.openstreetmap.org. The data is made available under ODbL.",
  "timestamp": "2022-04-26T00:26:54Z",
  "features": [
    {
      "type": "Feature",
      "properties": {
        "@id": "node/447906897",
        "amenity": "pharmacy",
        "healthcare": "pharmacy",
        "name": "Farmácia Nau Vitória"
      },
      "geometry": {
        "type": "Point",
        "coordinates": [
          -8.5821356,
          41.1742172
        ]
      },
      "id": "node/447906897"
    },
    {
      "type": "Feature",
      "properties": {
        "@id": "node/473863503",
        "addr:housenumber": "12",
        "addr:street": "Rua Serpa Pinto",
        "amenity": "pharmacy",
        "dispensing": "yes",
        "healthcare": "pharmacy",
        "name": "Farmácia Barreiros",
        "opening_hours": "24/7"
      },
      "geometry": {
        "type": "Point",
        "coordinates": [
          -8.6210246,
          41.1606206
        ]
      },
      "id": "node/473863503"
    },
    {
      "type": "Feature",
      "properties": {
        "@id": "node/773982489",
        "amenity": "pharmacy",
        "dispensing": "yes",
        "healthcare": "pharmacy",
        "name": "Farmácia Costa Cabral"
      },
      "geometry": {
        "type": "Point",
        "coordinates": [
          -8.5876506,
          41.1720903
        ]
      },
      "id": "node/773982489"
    },
    {
      "type": "Feature",
      "properties": {
        "@id": "node/773982491",
        "addr:housenumber": "1082",
        "addr:street": "Rua de Costa Cabral",
        "amenity": "pharmacy",
        "dispensing": "yes",
        "healthcare": "pharmacy",
        "name": "Farmácia da Cruz"
      },
      "geometry": {
        "type": "Point",
        "coordinates": [
          -8.5907066,
          41.1687099
        ]
      },
      "id": "node/773982491"
    },
    {
      "type": "Feature",
      "properties": {
        "@id": "node/1161739676",
        "addr:housenumber": "520",
        "addr:street": "Rua Antero de Quental",
        "amenity": "pharmacy",
        "dispensing": "yes",
        "healthcare": "pharmacy",
        "name": "Farmácia Antero de Quental"
      },
      "geometry": {
        "type": "Point",
        "coordinates": [
          -8.6110322,
          41.1627813
        ]
      },
      "id": "node/1161739676"
    },
    {
      "type": "Feature",
      "properties": {
        "@id": "node/1161739747",
        "addr:housenumber": "64",
        "addr:street": "Praça da Batalha",
        "amenity": "pharmacy",
        "dispensing": "yes",
        "name": "Farmácia Henriques",
        "opening_hours": "Mo-Fr 08:30-19:30; Sa 09:00-13:00,14:00-18:30",
        "wheelchair": "yes"
      },
      "geometry": {
        "type": "Point",
        "coordinates": [
          -8.6065682,
          41.1447786
        ]
      },
      "id": "node/1161739747"
    },
    {
      "type": "Feature",
      "properties": {
        "@id": "node/1161739756",
        "addr:housenumber": "689",
        "addr:street": "Avenida dos Combatentes da Grande Guerra",
        "amenity": "pharmacy",
        "dispensing": "yes",
        "healthcare": "pharmacy",
        "name": "Farmácia Saúde"
      },
      "geometry": {
        "type": "Point",
        "coordinates": [
          -8.5988215,
          41.165371
        ]
      },
      "id": "node/1161739756"
    },
    {
      "type": "Feature",
      "properties": {
        "@id": "node/1161778546",
        "addr:housenumber": "240",
        "addr:street": "Rua de Costa Cabral",
        "amenity": "pharmacy",
        "dispensing": "yes",
        "healthcare": "pharmacy",
        "name": "Farmácia Alírio de Barros"
      },
      "geometry": {
        "type": "Point",
        "coordinates": [
          -8.6013361,
          41.1639303
        ]
      },
      "id": "node/1161778546"
    },
    {
      "type": "Feature",
      "properties": {
        "@id": "node/1161778558",
        "addr:housenumber": "293",
        "addr:street": "Rua de Costa Cabral",
        "amenity": "pharmacy",
        "dispensing": "yes",
        "healthcare": "pharmacy",
        "name": "Farmácia Silva Pereira"
      },
      "geometry": {
        "type": "Point",
        "coordinates": [
          -8.601383,
          41.1640646
        ]
      },
      "id": "node/1161778558"
    },
    {
      "type": "Feature",
      "properties": {
        "@id": "node/1161778597",
        "addr:housenumber": "584",
        "addr:street": "Rua de Costa Cabral",
        "amenity": "pharmacy",
        "dispensing": "yes",
        "healthcare": "pharmacy",
        "name": "Farmácia Cosme"
      },
      "geometry": {
        "type": "Point",
        "coordinates": [
          -8.5975488,
          41.1659656
        ]
      },
      "id": "node/1161778597"
    },
    {
      "type": "Feature",
      "properties": {
        "@id": "node/1161930075",
        "addr:housenumber": "43",
        "addr:street": "Rua de Costa Cabral",
        "amenity": "pharmacy",
        "dispensing": "yes",
        "healthcare": "pharmacy",
        "name": "Farmácia Guerra"
      },
      "geometry": {
        "type": "Point",
        "coordinates": [
          -8.6036776,
          41.1622917
        ]
      },
      "id": "node/1161930075"
    },
    {
      "type": "Feature",
      "properties": {
        "@id": "node/1165490360",
        "addr:housenumber": "122",
        "addr:street": "Praça Marquês de Pombal",
        "amenity": "pharmacy",
        "dispensing": "yes",
        "healthcare": "pharmacy",
        "name": "Farmácia Martino"
      },
      "geometry": {
        "type": "Point",
        "coordinates": [
          -8.6038802,
          41.1613002
        ]
      },
      "id": "node/1165490360"
    },
    {
      "type": "Feature",
      "properties": {
        "@id": "node/1198778817",
        "amenity": "pharmacy",
        "healthcare": "pharmacy",
        "name": "Farmácia Central da Corujeira"
      },
      "geometry": {
        "type": "Point",
        "coordinates": [
          -8.5803238,
          41.159248
        ]
      },
      "id": "node/1198778817"
    },
    {
      "type": "Feature",
      "properties": {
        "@id": "node/1208835857",
        "addr:housenumber": "692",
        "addr:street": "Avenida Fernão de Magalhães",
        "amenity": "pharmacy",
        "dispensing": "yes",
        "drive_through": "no",
        "healthcare": "pharmacy",
        "name": "Farmácia Borralho",
        "opening_hours": "Mo-Fr 09:00-19:00; Sa 09:00-13:00"
      },
      "geometry": {
        "type": "Point",
        "coordinates": [
          -8.5947723,
          41.1558459
        ]
      },
      "id": "node/1208835857"
    },
    {
      "type": "Feature",
      "properties": {
        "@id": "node/1216466467",
        "addr:city": "Porto",
        "addr:housenumber": "52",
        "addr:postcode": "4200-143",
        "addr:street": "Rua do Campo Lindo",
        "alt_name": "Farmácia Lousada",
        "amenity": "pharmacy",
        "dispensing": "yes",
        "healthcare": "pharmacy",
        "name": "Farmácia Lousada",
        "opening_hours": "lundi,mardi,mercredi,jeudi,vendredi:9:00-20:00  samedi:9:00-17:00 dimanche:fermer",
        "phone": "22 502 0353"
      },
      "geometry": {
        "type": "Point",
        "coordinates": [
          -8.6088261,
          41.169278
        ]
      },
      "id": "node/1216466467"
    },
    {
      "type": "Feature",
      "properties": {
        "@id": "node/1216466497",
        "addr:housenumber": "71",
        "addr:street": "Rua de Santos Pousada",
        "amenity": "pharmacy",
        "dispensing": "yes",
        "healthcare": "pharmacy",
        "name": "Farmácia Soeiro"
      },
      "geometry": {
        "type": "Point",
        "coordinates": [
          -8.6005555,
          41.1494042
        ]
      },
      "id": "node/1216466497"
    },
    {
      "type": "Feature",
      "properties": {
        "@id": "node/1216751925",
        "addr:housenumber": "428",
        "addr:street": "Rua de São Dinis",
        "amenity": "pharmacy",
        "dispensing": "yes",
        "healthcare": "pharmacy",
        "name": "Farmácia São Dinis"
      },
      "geometry": {
        "type": "Point",
        "coordinates": [
          -8.6180315,
          41.1674205
        ]
      },
      "id": "node/1216751925"
    },
    {
      "type": "Feature",
      "properties": {
        "@id": "node/1216751929",
        "addr:housenumber": "96",
        "addr:street": "Praça do Exército Libertador",
        "amenity": "pharmacy",
        "dispensing": "yes",
        "healthcare": "pharmacy",
        "name": "Farmácia Ramos"
      },
      "geometry": {
        "type": "Point",
        "coordinates": [
          -8.624914,
          41.1661999
        ]
      },
      "id": "node/1216751929"
    },
    {
      "type": "Feature",
      "properties": {
        "@id": "node/1216751934",
        "amenity": "pharmacy",
        "healthcare": "pharmacy"
      },
      "geometry": {
        "type": "Point",
        "coordinates": [
          -8.6296992,
          41.1637825
        ]
      },
      "id": "node/1216751934"
    },
    {
      "type": "Feature",
      "properties": {
        "@id": "node/1216751938",
        "addr:housenumber": "62",
        "addr:street": "Praça do Exército Libertador",
        "amenity": "pharmacy",
        "dispensing": "yes",
        "healthcare": "pharmacy",
        "name": "Farmácia Alves"
      },
      "geometry": {
        "type": "Point",
        "coordinates": [
          -8.6250454,
          41.1668743
        ]
      },
      "id": "node/1216751938"
    },
    {
      "type": "Feature",
      "properties": {
        "@id": "node/1216789886",
        "addr:housenumber": "433",
        "addr:street": "Rua de Alves Redol",
        "amenity": "pharmacy",
        "dispensing": "yes",
        "healthcare": "pharmacy",
        "name": "Farmácia Mafalda",
        "wheelchair": "no"
      },
      "geometry": {
        "type": "Point",
        "coordinates": [
          -8.6159409,
          41.1615666
        ]
      },
      "id": "node/1216789886"
    },
    {
      "type": "Feature",
      "properties": {
        "@id": "node/1232608730",
        "addr:housenumber": "841",
        "addr:street": "Rua de João Pedro Ribeiro",
        "amenity": "pharmacy",
        "dispensing": "yes",
        "healthcare": "pharmacy",
        "name": "Farmácia Cortes Pinto",
        "opening_hours": "Mo-Fr 08:30-20:00; Sa 09:00-19:00"
      },
      "geometry": {
        "type": "Point",
        "coordinates": [
          -8.6082907,
          41.1610881
        ]
      },
      "id": "node/1232608730"
    },
    {
      "type": "Feature",
      "properties": {
        "@id": "node/1238413423",
        "addr:housenumber": "251",
        "addr:street": "Rua do Amial",
        "amenity": "pharmacy",
        "dispensing": "yes",
        "healthcare": "pharmacy",
        "name": "Farmácia Marques de Mendonça"
      },
      "geometry": {
        "type": "Point",
        "coordinates": [
          -8.6137437,
          41.1749664
        ]
      },
      "id": "node/1238413423"
    },
    {
      "type": "Feature",
      "properties": {
        "@id": "node/1239645088",
        "amenity": "pharmacy",
        "healthcare": "pharmacy",
        "name": "Farmácia Alves da Silva"
      },
      "geometry": {
        "type": "Point",
        "coordinates": [
          -8.6356837,
          41.1593481
        ]
      },
      "id": "node/1239645088"
    },
    {
      "type": "Feature",
      "properties": {
        "@id": "node/1270263273",
        "addr:housenumber": "316",
        "addr:street": "Rua Central de Francos",
        "amenity": "pharmacy",
        "dispensing": "yes",
        "healthcare": "pharmacy",
        "name": "Farmácia da Prelada",
        "opening_hours": "Mo-Fr 09:00-20:00; PH,Sa,Su 09:00-13:00"
      },
      "geometry": {
        "type": "Point",
        "coordinates": [
          -8.6367504,
          41.1693651
        ]
      },
      "id": "node/1270263273"
    },
    {
      "type": "Feature",
      "properties": {
        "@id": "node/1295560716",
        "addr:housenumber": "727",
        "addr:street": "Rua do Bonjardim",
        "amenity": "pharmacy",
        "healthcare": "pharmacy",
        "name": "Farmácia Oriental"
      },
      "geometry": {
        "type": "Point",
        "coordinates": [
          -8.6077274,
          41.155236
        ]
      },
      "id": "node/1295560716"
    },
    {
      "type": "Feature",
      "properties": {
        "@id": "node/1313566090",
        "addr:housenumber": "404",
        "addr:street": "Rua Formosa",
        "alt_name": "Farmácia Central da Liga das Associações Mutualistas do Porto",
        "amenity": "pharmacy",
        "dispensing": "yes",
        "healthcare": "pharmacy",
        "name": "Farmácia Central da Liga",
        "phone": "+351 223395495"
      },
      "geometry": {
        "type": "Point",
        "coordinates": [
          -8.6088019,
          41.1491352
        ]
      },
      "id": "node/1313566090"
    },
    {
      "type": "Feature",
      "properties": {
        "@id": "node/1316963160",
        "addr:housenumber": "78",
        "addr:street": "Praça Mouzinho de Albuquerque",
        "amenity": "pharmacy",
        "dispensing": "yes",
        "healthcare": "pharmacy",
        "name": "Farmácia Correia",
        "phone": "+351 226 067 429",
        "source": "survey"
      },
      "geometry": {
        "type": "Point",
        "coordinates": [
          -8.6278354,
          41.1583571
        ]
      },
      "id": "node/1316963160"
    },
    {
      "type": "Feature",
      "properties": {
        "@id": "node/1316963161",
        "addr:city": "Porto",
        "addr:housenumber": "601",
        "addr:postcode": "4050-109",
        "addr:street": "Rua da Boavista",
        "amenity": "pharmacy",
        "dispensing": "yes",
        "drive_through": "no",
        "healthcare": "pharmacy",
        "name": "Farmácia Boavista",
        "opening_hours": "Mo-Fr 08:30-20:00; Sa,Su 09:00-17:00",
        "payment:american_express": "yes",
        "payment:cash": "yes",
        "payment:coins": "yes",
        "payment:credit_cards": "yes",
        "payment:debit_cards": "yes",
        "payment:mastercard": "yes",
        "payment:notes": "yes",
        "payment:visa": "yes",
        "phone": "+351 222 005 443",
        "website": "https://farmacia-boavista.negocio.site/"
      },
      "geometry": {
        "type": "Point",
        "coordinates": [
          -8.6203849,
          41.1563918
        ]
      },
      "id": "node/1316963161"
    },
    {
      "type": "Feature",
      "properties": {
        "@id": "node/1316979571",
        "addr:housenumber": "211",
        "addr:street": "Rua Antero de Quental",
        "amenity": "pharmacy",
        "dispensing": "yes",
        "healthcare": "pharmacy",
        "name": "Farmácia da Lapa"
      },
      "geometry": {
        "type": "Point",
        "coordinates": [
          -8.6118923,
          41.1600504
        ]
      },
      "id": "node/1316979571"
    },
    {
      "type": "Feature",
      "properties": {
        "@id": "node/1316979577",
        "addr:housenumber": "118;119",
        "addr:street": "Praça da República",
        "amenity": "pharmacy",
        "dispensing": "yes",
        "drive_through": "no",
        "healthcare": "pharmacy",
        "name": "Farmácia do Campo",
        "source": "survey",
        "wheelchair": "yes"
      },
      "geometry": {
        "type": "Point",
        "coordinates": [
          -8.6134212,
          41.1551321
        ]
      },
      "id": "node/1316979577"
    },
    {
      "type": "Feature",
      "properties": {
        "@id": "node/1317539974",
        "addr:housenumber": "636",
        "addr:street": "Rua de Santos Pousada",
        "amenity": "pharmacy",
        "dispensing": "yes",
        "healthcare": "pharmacy",
        "name": "Farmácia São Jerónimo",
        "source": "survey"
      },
      "geometry": {
        "type": "Point",
        "coordinates": [
          -8.5994831,
          41.1544293
        ]
      },
      "id": "node/1317539974"
    },
    {
      "type": "Feature",
      "properties": {
        "@id": "node/1338999945",
        "addr:housenumber": "645-649",
        "addr:street": "Rua de Serpa Pinto",
        "amenity": "pharmacy",
        "dispensing": "yes",
        "healthcare": "pharmacy",
        "name": "Farmácia Serpa Pinto",
        "opening_hours": "Mo-Sa 08:00-24:00",
        "source": "survey"
      },
      "geometry": {
        "type": "Point",
        "coordinates": [
          -8.6204918,
          41.1663122
        ]
      },
      "id": "node/1338999945"
    },
    {
      "type": "Feature",
      "properties": {
        "@id": "node/1343998920",
        "amenity": "pharmacy",
        "dispensing": "yes",
        "healthcare": "pharmacy",
        "name": "Farmácia Queija Ferreira"
      },
      "geometry": {
        "type": "Point",
        "coordinates": [
          -8.5900952,
          41.1630983
        ]
      },
      "id": "node/1343998920"
    },
    {
      "type": "Feature",
      "properties": {
        "@id": "node/1422563105",
        "amenity": "pharmacy",
        "dispensing": "no",
        "name": "Farmácia da Boa Hora"
      },
      "geometry": {
        "type": "Point",
        "coordinates": [
          -8.6208097,
          41.1523792
        ]
      },
      "id": "node/1422563105"
    },
    {
      "type": "Feature",
      "properties": {
        "@id": "node/1484837310",
        "addr:city": "Porto",
        "addr:street": "Rua da Constituição",
        "amenity": "pharmacy",
        "healthcare": "pharmacy",
        "name": "Farmácia da Constituição"
      },
      "geometry": {
        "type": "Point",
        "coordinates": [
          -8.5995157,
          41.1611679
        ]
      },
      "id": "node/1484837310"
    },
    {
      "type": "Feature",
      "properties": {
        "@id": "node/1541417024",
        "addr:housenumber": "199",
        "addr:street": "Rua do Bolama",
        "amenity": "pharmacy",
        "dispensing": "yes",
        "healthcare": "pharmacy",
        "name": "Farmácia Herculano",
        "wheelchair": "limited"
      },
      "geometry": {
        "type": "Point",
        "coordinates": [
          -8.6051727,
          41.1653358
        ]
      },
      "id": "node/1541417024"
    },
    {
      "type": "Feature",
      "properties": {
        "@id": "node/1693696157",
        "addr:housenumber": "424",
        "addr:street": "Rua de O Primeiro de Janeiro",
        "amenity": "pharmacy",
        "dispensing": "yes",
        "name": "Farmácia do Bessa",
        "opening_hours": "24/7"
      },
      "geometry": {
        "type": "Point",
        "coordinates": [
          -8.6422799,
          41.1645047
        ]
      },
      "id": "node/1693696157"
    },
    {
      "type": "Feature",
      "properties": {
        "@id": "node/2039795438",
        "amenity": "pharmacy",
        "healthcare": "pharmacy",
        "name": "Farmácia Cameira"
      },
      "geometry": {
        "type": "Point",
        "coordinates": [
          -8.5903785,
          41.1469928
        ]
      },
      "id": "node/2039795438"
    },
    {
      "type": "Feature",
      "properties": {
        "@id": "node/2207667214",
        "addr:city": "Porto",
        "addr:housenumber": "114",
        "addr:street": "Rua das Flores",
        "amenity": "pharmacy",
        "dispensing": "no",
        "name": "Farmácia Parente",
        "phone": "+351 222001611"
      },
      "geometry": {
        "type": "Point",
        "coordinates": [
          -8.6132321,
          41.1440411
        ]
      },
      "id": "node/2207667214"
    },
    {
      "type": "Feature",
      "properties": {
        "@id": "node/2209115560",
        "addr:housenumber": "37;35",
        "addr:street": "Praça da Liberdade",
        "amenity": "pharmacy",
        "contact:facebook": "https://www.facebook.com/FarmaciaVitalia/",
        "dispensing": "yes",
        "name": "Farmácia Vitália",
        "opening_hours": "Mo-Fr 08:30-21:00; Sa 09:00-19:00",
        "phone": "+351 222 004 133",
        "start_date": "1933-02-04",
        "wheelchair": "yes"
      },
      "geometry": {
        "type": "Point",
        "coordinates": [
          -8.6119504,
          41.1459248
        ]
      },
      "id": "node/2209115560"
    },
    {
      "type": "Feature",
      "properties": {
        "@id": "node/2245158710",
        "amenity": "pharmacy",
        "dispensing": "yes",
        "healthcare": "pharmacy",
        "name": "Farmácia Sarabando"
      },
      "geometry": {
        "type": "Point",
        "coordinates": [
          -8.6121764,
          41.1451921
        ]
      },
      "id": "node/2245158710"
    },
    {
      "type": "Feature",
      "properties": {
        "@id": "node/2352557646",
        "amenity": "pharmacy",
        "dispensing": "yes",
        "healthcare": "pharmacy",
        "name": "Farmácia Sá da Bandeira"
      },
      "geometry": {
        "type": "Point",
        "coordinates": [
          -8.6079767,
          41.1483508
        ]
      },
      "id": "node/2352557646"
    },
    {
      "type": "Feature",
      "properties": {
        "@id": "node/2453065012",
        "amenity": "pharmacy",
        "healthcare": "pharmacy",
        "name": "Farmácia Guarani"
      },
      "geometry": {
        "type": "Point",
        "coordinates": [
          -8.6377321,
          41.1618364
        ]
      },
      "id": "node/2453065012"
    },
    {
      "type": "Feature",
      "properties": {
        "@id": "node/2454209921",
        "amenity": "pharmacy",
        "healthcare": "pharmacy",
        "name": "Farmácia Maia"
      },
      "geometry": {
        "type": "Point",
        "coordinates": [
          -8.6304581,
          41.1527079
        ]
      },
      "id": "node/2454209921"
    },
    {
      "type": "Feature",
      "properties": {
        "@id": "node/2455242104",
        "amenity": "pharmacy",
        "healthcare": "pharmacy",
        "name": "Farmácia da Música"
      },
      "geometry": {
        "type": "Point",
        "coordinates": [
          -8.6338232,
          41.158551
        ]
      },
      "id": "node/2455242104"
    },
    {
      "type": "Feature",
      "properties": {
        "@id": "node/2511443159",
        "amenity": "pharmacy",
        "name": "Ginoeco: Imagiologia"
      },
      "geometry": {
        "type": "Point",
        "coordinates": [
          -8.6211103,
          41.1472134
        ]
      },
      "id": "node/2511443159"
    },
    {
      "type": "Feature",
      "properties": {
        "@id": "node/2976474079",
        "addr:housenumber": "696",
        "addr:street": "Rua de Fernandes Tomás",
        "amenity": "pharmacy",
        "dispensing": "yes",
        "healthcare": "pharmacy",
        "name": "Garantia",
        "opening_hours": "Mo-Fr 08:30-19:30; Sa 09:00-19:00",
        "phone": "+351 222004645"
      },
      "geometry": {
        "type": "Point",
        "coordinates": [
          -8.6067219,
          41.1500985
        ]
      },
      "id": "node/2976474079"
    },
    {
      "type": "Feature",
      "properties": {
        "@id": "node/3092292611",
        "addr:city": "Porto",
        "addr:country": "PT",
        "addr:housenumber": "117",
        "addr:postcode": "4150-744",
        "addr:street": "Rua da Venezuela",
        "amenity": "pharmacy",
        "name": "Farmácia Central do Porto",
        "opening_hours": "Mo-Fr 09:00-22:00; Sa 09:00-19:00",
        "phone": "+351 222 001 684",
        "website": "https://www.farmaciacentraldoporto.com/index.php"
      },
      "geometry": {
        "type": "Point",
        "coordinates": [
          -8.6429074,
          41.1571373
        ]
      },
      "id": "node/3092292611"
    },
    {
      "type": "Feature",
      "properties": {
        "@id": "node/3545678185",
        "addr:city": "Porto",
        "addr:housenumber": "2",
        "addr:street": "Rua da Conceição",
        "amenity": "pharmacy",
        "healthcare": "pharmacy",
        "name": "Farmácia Aliança"
      },
      "geometry": {
        "type": "Point",
        "coordinates": [
          -8.6131721,
          41.1500253
        ]
      },
      "id": "node/3545678185"
    },
    {
      "type": "Feature",
      "properties": {
        "@id": "node/4695504447",
        "addr:housenumber": "37",
        "addr:street": "Rua do Castelo de Numão",
        "amenity": "pharmacy",
        "fixme": "confirmar localização",
        "healthcare": "pharmacy",
        "name": "Farmácia Almeida"
      },
      "geometry": {
        "type": "Point",
        "coordinates": [
          -8.633936,
          41.164873
        ]
      },
      "id": "node/4695504447"
    },
    {
      "type": "Feature",
      "properties": {
        "@id": "node/4828444661",
        "amenity": "pharmacy",
        "healthcare": "pharmacy",
        "name": "Farmácia D'Arrábida",
        "official_name": "Farmácia D'Arrábida, S.A."
      },
      "geometry": {
        "type": "Point",
        "coordinates": [
          -8.6359344,
          41.1407188
        ]
      },
      "id": "node/4828444661"
    },
    {
      "type": "Feature",
      "properties": {
        "@id": "node/4943982622",
        "amenity": "pharmacy",
        "name": "Farmácia e Perfumaria",
        "name:pt": "Farmácia e Perfumaria"
      },
      "geometry": {
        "type": "Point",
        "coordinates": [
          -8.6078517,
          41.1486363
        ]
      },
      "id": "node/4943982622"
    },
    {
      "type": "Feature",
      "properties": {
        "@id": "node/6550884972",
        "addr:street": "Praça da Liberdade",
        "amenity": "pharmacy",
        "healthcare": "pharmacy",
        "name": "Birra",
        "opening_hours": "Mo-Su 08:00-22:00"
      },
      "geometry": {
        "type": "Point",
        "coordinates": [
          -8.6108485,
          41.146723
        ]
      },
      "id": "node/6550884972"
    },
    {
      "type": "Feature",
      "properties": {
        "@id": "node/6640306228",
        "amenity": "pharmacy",
        "dispensing": "yes",
        "healthcare": "pharmacy",
        "name": "Farmácia dos Clérigos"
      },
      "geometry": {
        "type": "Point",
        "coordinates": [
          -8.6127751,
          41.1460581
        ]
      },
      "id": "node/6640306228"
    },
    {
      "type": "Feature",
      "properties": {
        "@id": "node/6647824131",
        "addr:city": "Porto",
        "addr:country": "PT",
        "addr:housenumber": "141",
        "addr:postcode": "4000-450",
        "addr:street": "Rua de Santa Catarina",
        "amenity": "pharmacy",
        "contact:phone": "+351 222 002145",
        "dispensing": "yes",
        "healthcare": "pharmacy",
        "name": "Farmácia Santa Catarina",
        "opening_hours": "Mo-Fr 09:00-19:00; Sa 10:00-13:00",
        "wheelchair": "no"
      },
      "geometry": {
        "type": "Point",
        "coordinates": [
          -8.60674,
          41.1474855
        ]
      },
      "id": "node/6647824131"
    },
    {
      "type": "Feature",
      "properties": {
        "@id": "node/6661619863",
        "amenity": "pharmacy",
        "name": "Farmácia Moreno",
        "start_date": "1904",
        "wikidata": "Q54475028"
      },
      "geometry": {
        "type": "Point",
        "coordinates": [
          -8.6150002,
          41.1428841
        ]
      },
      "id": "node/6661619863"
    },
    {
      "type": "Feature",
      "properties": {
        "@id": "node/7061709192",
        "addr:city": "Lordelo do Ouro",
        "addr:housenumber": "230",
        "addr:postcode": "4150-219",
        "addr:street": "Rua de Luís Cruz",
        "amenity": "pharmacy",
        "dispensing": "yes",
        "healthcare": "pharmacy",
        "name": "Farmácia Valdrez"
      },
      "geometry": {
        "type": "Point",
        "coordinates": [
          -8.6507936,
          41.1506168
        ]
      },
      "id": "node/7061709192"
    },
    {
      "type": "Feature",
      "properties": {
        "@id": "node/8369094432",
        "amenity": "pharmacy",
        "dispensing": "yes",
        "healthcare": "pharmacy",
        "name": "Farmácia do Lago"
      },
      "geometry": {
        "type": "Point",
        "coordinates": [
          -8.6487327,
          41.166332
        ]
      },
      "id": "node/8369094432"
    },
    {
      "type": "Feature",
      "properties": {
        "@id": "node/8674210533",
        "amenity": "pharmacy",
        "healthcare": "pharmacy",
        "name": "Farmácia Porta do Olival"
      },
      "geometry": {
        "type": "Point",
        "coordinates": [
          -8.6153088,
          41.1453239
        ]
      },
      "id": "node/8674210533"
    },
    {
      "type": "Feature",
      "properties": {
        "@id": "node/9038898365",
        "amenity": "pharmacy",
        "healthcare": "pharmacy",
        "name": "Farmácia Avenida",
        "opening_hours": "Mo-Fr 08:30-24:00; Sa 09:00-24:00; PH,Su 10:00-12:00"
      },
      "geometry": {
        "type": "Point",
        "coordinates": [
          -8.6437268,
          41.1605052
        ]
      },
      "id": "node/9038898365"
    },
    {
      "type": "Feature",
      "properties": {
        "@id": "node/9431176315",
        "addr:housenumber": "366",
        "addr:street": "Rua de Cinco de Outubro",
        "amenity": "pharmacy",
        "healthcare": "pharmacy",
        "name": "Farmácia de 5 outubro"
      },
      "geometry": {
        "type": "Point",
        "coordinates": [
          -8.6321103,
          41.1616531
        ]
      },
      "id": "node/9431176315"
    },
    {
      "type": "Feature",
      "properties": {
        "@id": "node/9474250445",
        "amenity": "pharmacy",
        "name": "Valdrez"
      },
      "geometry": {
        "type": "Point",
        "coordinates": [
          -8.6257455,
          41.1504715
        ]
      },
      "id": "node/9474250445"
    }
  ]
}