{
  "type": "FeatureCollection",
  "generator": "overpass-ide",
  "copyright": "The data included in this document is from www.openstreetmap.org. The data is made available under ODbL.",
  "timestamp": "2022-04-26T00:27:54Z",
  "features": [
    {
      "type": "Feature",
      "properties": {
        "@id": "node/411622147",
        "brand": "Pingo Doce",
        "brand:wikidata": "Q1575057",
        "brand:wikipedia": "en:Pingo Doce",
        "name": "Pingo Doce",
        "operator": "Pingo Doce",
        "shop": "supermarket"
      },
      "geometry": {
        "type": "Point",
        "coordinates": [
          -8.599494,
          41.1685228
        ]
      },
      "id": "node/411622147"
    },
    {
      "type": "Feature",
      "properties": {
        "@id": "node/987218130",
        "brand": "Minipreço",
        "brand:wikidata": "Q3042224",
        "brand:wikipedia": "en:Minipreço",
        "name": "Minipreço",
        "operator": "Minipreço",
        "shop": "supermarket"
      },
      "geometry": {
        "type": "Point",
        "coordinates": [
          -8.6037371,
          41.1471388
        ]
      },
      "id": "node/987218130"
    },
    {
      "type": "Feature",
      "properties": {
        "@id": "node/987218307",
        "brand": "Minipreço",
        "brand:wikidata": "Q3042224",
        "brand:wikipedia": "en:Minipreço",
        "name": "Minipreço",
        "shop": "supermarket"
      },
      "geometry": {
        "type": "Point",
        "coordinates": [
          -8.6044022,
          41.1506643
        ]
      },
      "id": "node/987218307"
    },
    {
      "type": "Feature",
      "properties": {
        "@id": "node/1243809310",
        "addr:city": "Porto",
        "addr:housenumber": "1319",
        "addr:postcode": "4100-130",
        "addr:street": "Avenida da Boavista",
        "brand": "Pingo Doce",
        "brand:wikidata": "Q1575057",
        "brand:wikipedia": "en:Pingo Doce",
        "name": "Pingo Doce",
        "opening_hours": "Mo-Su 08:30-21:30",
        "operator": "Pingo Doce",
        "shop": "supermarket",
        "website": "https://pingodoce.pt/"
      },
      "geometry": {
        "type": "Point",
        "coordinates": [
          -8.6393339,
          41.15945
        ]
      },
      "id": "node/1243809310"
    },
    {
      "type": "Feature",
      "properties": {
        "@id": "node/1291504385",
        "brand": "Pingo Doce",
        "brand:wikidata": "Q1575057",
        "brand:wikipedia": "en:Pingo Doce",
        "name": "Pingo Doce",
        "shop": "supermarket"
      },
      "geometry": {
        "type": "Point",
        "coordinates": [
          -8.5929237,
          41.1628533
        ]
      },
      "id": "node/1291504385"
    },
    {
      "type": "Feature",
      "properties": {
        "@id": "node/1329505305",
        "brand": "Minipreço",
        "brand:wikidata": "Q3042224",
        "brand:wikipedia": "en:Minipreço",
        "name": "Minipreço",
        "shop": "supermarket"
      },
      "geometry": {
        "type": "Point",
        "coordinates": [
          -8.5939509,
          41.1670106
        ]
      },
      "id": "node/1329505305"
    },
    {
      "type": "Feature",
      "properties": {
        "@id": "node/1484837302",
        "name": "Lima 5 (My Super)",
        "shop": "supermarket"
      },
      "geometry": {
        "type": "Point",
        "coordinates": [
          -8.6004923,
          41.1619685
        ]
      },
      "id": "node/1484837302"
    },
    {
      "type": "Feature",
      "properties": {
        "@id": "node/2295970031",
        "brand": "Dia",
        "brand:wikidata": "Q925132",
        "brand:wikipedia": "es:Supermercados DIA",
        "name": "Dia",
        "shop": "supermarket"
      },
      "geometry": {
        "type": "Point",
        "coordinates": [
          -8.5977348,
          41.1661217
        ]
      },
      "id": "node/2295970031"
    },
    {
      "type": "Feature",
      "properties": {
        "@id": "node/2321280055",
        "addr:city": "Porto",
        "addr:housenumber": "221/223",
        "addr:postcode": "4000-385",
        "addr:street": "Rua de Passos Manuel",
        "brand": "Pingo Doce",
        "brand:wikidata": "Q1575057",
        "brand:wikipedia": "en:Pingo Doce",
        "name": "Pingo Doce",
        "opening_hours": "Mo-Sa 8:30-21:00; Su 9:00-20:30",
        "phone": "+351 938875634",
        "shop": "supermarket",
        "website": "https://www.pingodoce.pt/",
        "wheelchair": "no"
      },
      "geometry": {
        "type": "Point",
        "coordinates": [
          -8.6046442,
          41.1467401
        ]
      },
      "id": "node/2321280055"
    },
    {
      "type": "Feature",
      "properties": {
        "@id": "node/2328343755",
        "brand": "Minipreço",
        "brand:wikidata": "Q3042224",
        "brand:wikipedia": "en:Minipreço",
        "name": "Minipreço",
        "shop": "supermarket"
      },
      "geometry": {
        "type": "Point",
        "coordinates": [
          -8.5916855,
          41.1467311
        ]
      },
      "id": "node/2328343755"
    },
    {
      "type": "Feature",
      "properties": {
        "@id": "node/2481290324",
        "addr:city": "Porto",
        "addr:country": "PT",
        "addr:housenumber": "49",
        "addr:postcode": "4000-285",
        "addr:street": "Avenida Heróis e Mártires Guerra de Angola",
        "alt_name": "Froiz Centro Comercial Trindade Domus",
        "brand": "Froiz",
        "brand:wikidata": "Q17070775",
        "brand:wikipedia": "en:Froiz",
        "name": "Froiz",
        "phone": "+351 222 039 100",
        "shop": "supermarket",
        "website": "https://www.froiz.pt/",
        "wheelchair": "yes"
      },
      "geometry": {
        "type": "Point",
        "coordinates": [
          -8.6109008,
          41.1515259
        ]
      },
      "id": "node/2481290324"
    },
    {
      "type": "Feature",
      "properties": {
        "@id": "node/2486710601",
        "brand": "Minipreço",
        "brand:wikidata": "Q3042224",
        "brand:wikipedia": "en:Minipreço",
        "name": "Minipreço",
        "shop": "supermarket"
      },
      "geometry": {
        "type": "Point",
        "coordinates": [
          -8.6129363,
          41.1722777
        ]
      },
      "id": "node/2486710601"
    },
    {
      "type": "Feature",
      "properties": {
        "@id": "node/2749809944",
        "brand": "Pingo Doce",
        "brand:wikidata": "Q1575057",
        "brand:wikipedia": "en:Pingo Doce",
        "name": "Pingo Doce",
        "shop": "supermarket"
      },
      "geometry": {
        "type": "Point",
        "coordinates": [
          -8.6135705,
          41.1538458
        ]
      },
      "id": "node/2749809944"
    },
    {
      "type": "Feature",
      "properties": {
        "@id": "node/2893295489",
        "name": "Minipreço",
        "shop": "supermarket"
      },
      "geometry": {
        "type": "Point",
        "coordinates": [
          -8.6115311,
          41.1503384
        ]
      },
      "id": "node/2893295489"
    },
    {
      "type": "Feature",
      "properties": {
        "@id": "node/2927283523",
        "name": "Minipreço",
        "opening_hours": "Mo-Su,PH 08:00-23:00",
        "shop": "supermarket"
      },
      "geometry": {
        "type": "Point",
        "coordinates": [
          -8.6045568,
          41.1459401
        ]
      },
      "id": "node/2927283523"
    },
    {
      "type": "Feature",
      "properties": {
        "@id": "node/3457211710",
        "brand": "Minipreço",
        "brand:wikidata": "Q3042224",
        "brand:wikipedia": "en:Minipreço",
        "name": "Minipreço",
        "opening_hours": "Mo-Su 09:00-23:00",
        "shop": "supermarket"
      },
      "geometry": {
        "type": "Point",
        "coordinates": [
          -8.6122557,
          41.1451479
        ]
      },
      "id": "node/3457211710"
    },
    {
      "type": "Feature",
      "properties": {
        "@id": "node/3687575088",
        "name": "Jumbo",
        "shop": "supermarket",
        "toilets:wheelchair": "yes",
        "wheelchair": "yes"
      },
      "geometry": {
        "type": "Point",
        "coordinates": [
          -8.6371403,
          41.1413249
        ]
      },
      "id": "node/3687575088"
    },
    {
      "type": "Feature",
      "properties": {
        "@id": "node/3777220121",
        "addr:city": "Porto",
        "addr:housenumber": "435",
        "addr:postcode": "4050-175",
        "addr:street": "Rua de Cedofeita",
        "brand": "Pingo Doce",
        "brand:wikidata": "Q1575057",
        "brand:wikipedia": "en:Pingo Doce",
        "name": "Pingo Doce",
        "opening_hours": "Mo-Su 08:30-21:00",
        "operator": "Pingo Doce - Distribuição Alimentar, S.A.",
        "payment:cash": "yes",
        "payment:credit_cards": "yes",
        "phone": "+351 223 402 080",
        "shop": "supermarket",
        "source": "local knowledge",
        "website": "https://www.pingodoce.pt/lojas/cedofeita/",
        "wheelchair": "yes"
      },
      "geometry": {
        "type": "Point",
        "coordinates": [
          -8.6182789,
          41.1531756
        ]
      },
      "id": "node/3777220121"
    },
    {
      "type": "Feature",
      "properties": {
        "@id": "node/4003890489",
        "name": "Meu Super",
        "opening_hours": "Mo-Fr 08:00-20:00; Sa 08:30-20:00",
        "shop": "supermarket"
      },
      "geometry": {
        "type": "Point",
        "coordinates": [
          -8.6091557,
          41.1549844
        ]
      },
      "id": "node/4003890489"
    },
    {
      "type": "Feature",
      "properties": {
        "@id": "node/4008448689",
        "addr:city": "Porto",
        "addr:country": "PT",
        "addr:place": "Ramalde",
        "addr:postcode": "4100-453",
        "addr:street": "Rua de São João de Brito",
        "brand": "Pingo Doce",
        "brand:wikidata": "Q1575057",
        "brand:wikipedia": "en:Pingo Doce",
        "name": "Pingo Doce",
        "opening_hours": "08:30-21:00",
        "phone": "+351 226 167 030",
        "shop": "supermarket",
        "website": "https://www.pingodoce.pt"
      },
      "geometry": {
        "type": "Point",
        "coordinates": [
          -8.6494979,
          41.1669392
        ]
      },
      "id": "node/4008448689"
    },
    {
      "type": "Feature",
      "properties": {
        "@id": "node/4908911356",
        "addr:housenumber": "71",
        "brand": "Mix Markt",
        "brand:wikidata": "Q327854",
        "brand:wikipedia": "de:Mix Markt",
        "name": "Mix Markt",
        "shop": "supermarket"
      },
      "geometry": {
        "type": "Point",
        "coordinates": [
          -8.6105587,
          41.1515978
        ]
      },
      "id": "node/4908911356"
    },
    {
      "type": "Feature",
      "properties": {
        "@id": "node/5052115511",
        "addr:housenumber": "400",
        "addr:street": "Rua da Boavista",
        "name": "Meu Super",
        "opening_hours": "Mo-Sa 08:30-20:30, Su 09:00-20:00",
        "shop": "supermarket"
      },
      "geometry": {
        "type": "Point",
        "coordinates": [
          -8.6180014,
          41.1561624
        ]
      },
      "id": "node/5052115511"
    },
    {
      "type": "Feature",
      "properties": {
        "@id": "node/5060384821",
        "addr:housenumber": "271",
        "addr:street": "Rua de Latino Coelho",
        "brand": "Minipreço",
        "brand:wikidata": "Q3042224",
        "brand:wikipedia": "en:Minipreço",
        "name": "Minipreço",
        "opening_hours": "Mo-Su 09:00-21:00",
        "shop": "supermarket"
      },
      "geometry": {
        "type": "Point",
        "coordinates": [
          -8.6018346,
          41.1595736
        ]
      },
      "id": "node/5060384821"
    },
    {
      "type": "Feature",
      "properties": {
        "@id": "node/5116279722",
        "addr:housenumber": "97",
        "addr:postcode": "4050-387",
        "addr:street": "Rua de Miragaia",
        "name": "Armazém",
        "name:en": "Armazem",
        "opening_hours": "Mo-Su 11:30-20:00",
        "shop": "supermarket"
      },
      "geometry": {
        "type": "Point",
        "coordinates": [
          -8.6200716,
          41.1429218
        ]
      },
      "id": "node/5116279722"
    },
    {
      "type": "Feature",
      "properties": {
        "@id": "node/5318421422",
        "addr:street": "Rua da Firmeza",
        "brand": "Minipreço",
        "brand:wikidata": "Q3042224",
        "brand:wikipedia": "en:Minipreço",
        "name": "Minipreço",
        "opening_hours": "Mo-Sa 09:00-20:00; Su 09:15-15:20",
        "shop": "supermarket"
      },
      "geometry": {
        "type": "Point",
        "coordinates": [
          -8.6005336,
          41.1511148
        ]
      },
      "id": "node/5318421422"
    },
    {
      "type": "Feature",
      "properties": {
        "@id": "node/5500050921",
        "name": "Meu super",
        "shop": "supermarket",
        "wheelchair": "yes"
      },
      "geometry": {
        "type": "Point",
        "coordinates": [
          -8.596135,
          41.1464238
        ]
      },
      "id": "node/5500050921"
    },
    {
      "type": "Feature",
      "properties": {
        "@id": "node/5554390914",
        "brand": "Minipreço",
        "brand:wikidata": "Q3042224",
        "brand:wikipedia": "en:Minipreço",
        "name": "Minipreço",
        "opening_hours": "Mo-Sa 08:30-20:00; Su 09:00-19:00",
        "shop": "supermarket"
      },
      "geometry": {
        "type": "Point",
        "coordinates": [
          -8.6217201,
          41.1567413
        ]
      },
      "id": "node/5554390914"
    },
    {
      "type": "Feature",
      "properties": {
        "@id": "node/6291596394",
        "addr:street": "Rua de Nossa Senhora de Fátima",
        "brand": "Pingo Doce",
        "brand:wikidata": "Q1575057",
        "brand:wikipedia": "en:Pingo Doce",
        "name": "Pingo Doce",
        "opening_hours": "Mo-Su 09:00-21:00",
        "shop": "supermarket"
      },
      "geometry": {
        "type": "Point",
        "coordinates": [
          -8.6272224,
          41.1589124
        ]
      },
      "id": "node/6291596394"
    },
    {
      "type": "Feature",
      "properties": {
        "@id": "node/7056715965",
        "addr:street": "Rua das Condominhas",
        "brand": "Minipreço",
        "brand:wikidata": "Q3042224",
        "brand:wikipedia": "en:Minipreço",
        "name": "Minipreço",
        "opening_hours": "Mo-Su 09:00-20:00",
        "shop": "supermarket"
      },
      "geometry": {
        "type": "Point",
        "coordinates": [
          -8.6495404,
          41.1513342
        ]
      },
      "id": "node/7056715965"
    },
    {
      "type": "Feature",
      "properties": {
        "@id": "node/7221026180",
        "brand": "Continente",
        "brand:wikidata": "Q2995683",
        "brand:wikipedia": "en:Continente (supermarket)",
        "name": "Continente",
        "shop": "supermarket"
      },
      "geometry": {
        "type": "Point",
        "coordinates": [
          -8.6212298,
          41.1634196
        ]
      },
      "id": "node/7221026180"
    },
    {
      "type": "Feature",
      "properties": {
        "@id": "node/7544981810",
        "brand": "Continente",
        "brand:wikidata": "Q2995683",
        "brand:wikipedia": "en:Continente (supermarket)",
        "name": "Continente",
        "opening_hours": "Mo-Su 08:00-21:00",
        "shop": "supermarket"
      },
      "geometry": {
        "type": "Point",
        "coordinates": [
          -8.6268845,
          41.1670014
        ]
      },
      "id": "node/7544981810"
    },
    {
      "type": "Feature",
      "properties": {
        "@id": "node/7838126036",
        "addr:city": "Porto",
        "addr:country": "PT",
        "addr:housenumber": "170-172",
        "addr:postcode": "4300-188",
        "addr:street": "Campo 24 Agosto",
        "alt_name": "Pingo Doce Fernão Magalhães",
        "brand": "Pingo Doce",
        "brand:wikidata": "Q1575057",
        "brand:wikipedia": "en:Pingo Doce",
        "name": "Pingo Doce",
        "shop": "supermarket",
        "website": "https://www.pingodoce.pt/"
      },
      "geometry": {
        "type": "Point",
        "coordinates": [
          -8.5981112,
          41.150003
        ]
      },
      "id": "node/7838126036"
    },
    {
      "type": "Feature",
      "properties": {
        "@id": "node/8586055023",
        "brand": "Spar",
        "brand:wikidata": "Q610492",
        "brand:wikipedia": "en:SPAR (retailer)",
        "name": "Spar",
        "shop": "supermarket"
      },
      "geometry": {
        "type": "Point",
        "coordinates": [
          -8.6284866,
          41.1596239
        ]
      },
      "id": "node/8586055023"
    },
    {
      "type": "Feature",
      "properties": {
        "@id": "node/8635469508",
        "brand": "Continente",
        "brand:wikidata": "Q2995683",
        "brand:wikipedia": "en:Continente (supermarket)",
        "name": "Continente",
        "shop": "supermarket"
      },
      "geometry": {
        "type": "Point",
        "coordinates": [
          -8.6288498,
          41.1553385
        ]
      },
      "id": "node/8635469508"
    },
    {
      "type": "Feature",
      "properties": {
        "@id": "node/8635469509",
        "brand": "Froiz",
        "brand:wikidata": "Q17070775",
        "brand:wikipedia": "en:Froiz",
        "name": "Froiz",
        "shop": "supermarket"
      },
      "geometry": {
        "type": "Point",
        "coordinates": [
          -8.6294617,
          41.1548295
        ]
      },
      "id": "node/8635469509"
    },
    {
      "type": "Feature",
      "properties": {
        "@id": "node/8719559317",
        "addr:housenumber": "352",
        "addr:postcode": "4100-173",
        "addr:street": "Rua de Cinco de Outubro",
        "name": "IdealBio",
        "opening_hours": "Mo-Fr 09:00-20:00; Sa 09:00-19:00; Su 09:00-17:00",
        "shop": "supermarket",
        "website": "https://idealbio.pt/"
      },
      "geometry": {
        "type": "Point",
        "coordinates": [
          -8.6319925,
          41.1615201
        ]
      },
      "id": "node/8719559317"
    },
    {
      "type": "Feature",
      "properties": {
        "@id": "node/8911435934",
        "name": "Entrem... Entrem",
        "opening_hours": "Mo-Sa 09:00-19:30",
        "shop": "supermarket"
      },
      "geometry": {
        "type": "Point",
        "coordinates": [
          -8.5951607,
          41.1551686
        ]
      },
      "id": "node/8911435934"
    },
    {
      "type": "Feature",
      "properties": {
        "@id": "node/9048673455",
        "branch": "&Go!",
        "brand": "Pingo Doce",
        "brand:wikidata": "Q1575057",
        "brand:wikipedia": "en:Pingo Doce",
        "name": "Pingo Doce",
        "shop": "supermarket"
      },
      "geometry": {
        "type": "Point",
        "coordinates": [
          -8.6468012,
          41.163905
        ]
      },
      "id": "node/9048673455"
    },
    {
      "type": "Feature",
      "properties": {
        "@id": "node/9067063717",
        "name": "Minipreço ",
        "shop": "supermarket"
      },
      "geometry": {
        "type": "Point",
        "coordinates": [
          -8.6034217,
          41.1493646
        ]
      },
      "id": "node/9067063717"
    },
    {
      "type": "Feature",
      "properties": {
        "@id": "node/9341794534",
        "name": "Minipreço",
        "shop": "supermarket"
      },
      "geometry": {
        "type": "Point",
        "coordinates": [
          -8.6164766,
          41.1495125
        ]
      },
      "id": "node/9341794534"
    },
    {
      "type": "Feature",
      "properties": {
        "@id": "node/9613316715",
        "addr:city": "Porto",
        "addr:housenumber": "28-198",
        "addr:postcode": "4350-149",
        "addr:street": "Rua dos Campeões Europeus",
        "brand": "Continente",
        "brand:wikidata": "Q2995683",
        "brand:wikipedia": "en:Continente (supermarket)",
        "name": "Continente",
        "shop": "supermarket"
      },
      "geometry": {
        "type": "Point",
        "coordinates": [
          -8.5832312,
          41.1636726
        ]
      },
      "id": "node/9613316715"
    },
    {
      "type": "Feature",
      "properties": {
        "@id": "node/9627310289",
        "name": "Spar",
        "shop": "supermarket"
      },
      "geometry": {
        "type": "Point",
        "coordinates": [
          -8.6180908,
          41.1444511
        ]
      },
      "id": "node/9627310289"
    }
  ]
}